SONATE-2
1 59112U 24043Q   26144.94945430  .00034940  00000+0  48695-3 0  9990
2 59112  97.5511 293.9566 0005827 280.2320  79.8278 15.56834784124275
GRBBeta
1 60237U 24128C   26144.85695754  .00004154  00000+0  28889-3 0  9992
2 60237  61.9903 298.1082 0043903 129.8377 230.6592 15.06419965102752
Curium One
1 60242U 24128H   26144.76416050  .00008163  00000+0  47373-3 0  9991
2 60242  61.9791 288.7115 0043477 125.9418 234.5723 15.12086397102917
ROBUSTA-3A
1 60243U 24128J   26144.64988320  .00007804  00000+0  46350-3 0  9998
2 60243  61.9870 291.4575 0044662 123.4835 237.0541 15.11254352102867
CatSat
1 60246U 24125J   26144.10623657  .00041438  00000+0  59573-3 0  9990
2 60246  97.2115 356.3440 0021051 269.0939  90.7904 15.55709327103644
ARTIC WX
1 60543U 24149CD  26144.91472379  .00000611  00000+0  69225-4 0  9992
2 60543  97.6806 216.0445 0002638 150.8523 209.2842 14.89810199 95833
ARCTICSAT 1
1 61762U 24199AD  26144.94284456  .00317572  39250-4  10499-2 0  9999
2 61762  97.2870  27.2879 0002218 152.1729 207.9663 15.90383308134407
HYPERVIEW-1G (RS66S)
1 61772U 24199AP  26144.90388249  .00100509  00000+0  83532-3 0  9996
2 61772  97.2930  23.5476 0004865  26.3383 333.8125 15.69836522131018
AO-123
1 61781U 24199AY  26144.90007288  .00007073  00000+0  20808-3 0  9996
2 61781  97.3036  13.7833 0014988  38.9080 321.3239 15.35283275130352
SAMSAT-IONOSPHERE
1 61784U 24199BB  26144.91600661  .00040136  00000+0  58890-3 0  9993
2 61784  97.2987  20.2893 0008850  23.0126 337.1523 15.55379291133940
LASARsat
1 62391U 24247Q   26144.90283261  .00030333  00000+0  63976-3 0  9993
2 62391  44.9756  32.9035 0006595 201.2176 158.8441 15.44722508 79717
CROCUBE
1 62394U 24247T   26144.73372675  .00031105  00000+0  61985-3 0  9991
2 62394  44.9732  31.5448 0006365 203.6864 156.3734 15.46372478 79719
JINJUSat 1B
1 63210U 25052A   26144.97543646  .00015032  00000+0  47847-3 0  9990
2 63210  97.4030  41.7097 0004369 139.1329 221.0242 15.32667043 66546
NUSHSAT 1
1 63211U 25052B   26144.66381533  .00017683  00000+0  52387-3 0  9991
2 63211  97.4006  41.8865 0004063 138.8196 221.3354 15.34914572 66533
TEVEL2-4
1 63213U 25052D   26144.96245657  .00016310  00000+0  50285-3 0  9993
2 63213  97.3932  41.3275 0003125 147.1092 213.0346 15.33670944 66550
TEVEL2-5
1 63214U 25052E   26144.65418350  .00015891  00000+0  49264-3 0  9990
2 63214  97.3929  40.9735 0003038 147.5060 212.6370 15.33501284 66502
TEVEL2-6
1 63215U 25052F   26144.66594555  .00015826  00000+0  49123-3 0  9996
2 63215  97.3933  40.9700 0003125 147.0016 213.1422 15.33463281 66501
TEVEL2-1
1 63217U 25052H   26144.68706366  .00014681  00000+0  46313-3 0  9991
2 63217  97.3905  40.6426 0002647 157.9284 202.2073 15.32964740 66493
TEVEL2-3
1 63218U 25052J   26144.68251080  .00014797  00000+0  46601-3 0  9998
2 63218  97.3907  40.6572 0002661 159.2088 200.9263 15.33014756 66491
TEVEL2-2
1 63219U 25052K   26144.68749553  .00014418  00000+0  45480-3 0  9990
2 63219  97.3903  40.6449 0002628 158.7421 201.3931 15.32970600 66494
TEVEL2-9
1 63237U 25052AD  26144.70045445  .00013556  00000+0  45374-3 0  9996
2 63237  97.3967  40.0827 0004918 206.7119 153.3869 15.31069568 66431
TEVEL2-7
1 63238U 25052AE  26144.67164392  .00013486  00000+0  45525-3 0  9996
2 63238  97.3969  39.9796 0005009 207.8316 152.2658 15.30794528 66422
TEVEL2-8
1 63239U 25052AF  26144.67964135  .00013189  00000+0  44553-3 0  9990
2 63239  97.3968  39.9652 0004985 208.6250 151.4718 15.30776906 66429
PARUS-T2
1 64560U 25135AJ  26144.78897946  .00004066  00000+0  37341-3 0  9998
2 64560  97.7701 259.6659 0001208  82.0557 278.0800 14.95384108 50412
Geoscan-1
1 64880U 25155E   26144.90851018  .00010232  00000+0  35257-3 0  9995
2 64880  97.4538 113.5095 0005511 255.7942 104.2686 15.30198951 77210
Geoscan-2
1 64890U 25155Q   26144.90633529  .00009961  00000+0  34046-3 0  9993
2 64890  97.4537 113.6505 0005091 236.0799 123.9958 15.30473872 77221
Geoscan-4
1 64892U 25155S   26144.95577651  .00012837  00000+0  40897-3 0  9990
2 64892  97.4535 114.2135 0003734 261.7976  98.2843 15.32680497 77267
Geoscan-3
1 64893U 25155T   26144.92015151  .00017051  00000+0  51203-3 0  9996
2 64893  97.4524 114.5430 0003416 260.3534  99.7323 15.34498726 77284
SPIRONE
1 66657U 25274H   26144.80547895  .00001803  00000+0  17669-3 0  9996
2 66657  97.7481  74.4332 0013771  91.7664 268.5133 14.93431151 26731
K-HERO
1 66660U 25274L   26144.68268235  .00001850  00000+0  17920-3 0  9996
2 66660  97.7488  74.4558 0015648  96.1360 264.1644 14.93854367 26725
SNUGLITE-III DURI
1 66661U 25274M   26144.33626735  .00001441  00000+0  14061-3 0  9991
2 66661  97.7485  74.1340 0016200  98.1196 262.1862 14.93903923 26670
GALAPAGOS
1 67279U 25313AH  26144.68048381  .00006504  00000+0  28308-3 0  9998
2 67279  97.3929 219.6661 0015744  88.3852 271.9188 15.22461409 22372
Lobachevsky
1 67282U 25313AL  26144.75892427  .00004679  00000+0  20303-3 0  9996
2 67282  97.3931 219.8545 0012243  84.3950 275.8683 15.22759023 22395
SAKHACUBE-CHOLBON
1 67290U 25313AU  26144.66452705  .00008250  00000+0  33900-3 0  9992
2 67290  97.3938 220.0013 0010864  82.8684 277.3789 15.24386852 22391
RS95S (QMR-KWT-2)
1 67291U 25313AV  26144.93522437  .00013174  00000+0  52045-3 0  9995
2 67291  97.3938 220.3986 0010367  81.7267 278.5146 15.25582525 22449
KNACKSAT-2
1 67683U 98067XZ  26144.95178659  .00040620  00000+0  54043-3 0  9997
2 67683  51.6295  51.1568 0011897 115.8604 244.3617 15.57677453 16652
Ten-Koh2
1 68261U 25241B   26144.20822715  .00006697  00000+0  28987-3 0  9995
2 68261  51.6611  73.7245 0006630  71.0288 289.1408 15.23554297 11258
JACK-002
1 68417U 26067B   26144.91126399  .00005947  00000+0  28695-3 0  9991
2 68417  97.4550 103.7973 0002912  45.1223 315.0248 15.19053448  8415
DISCO 2
1 68431U 26067R   26144.86110745  .00006565  00000+0  31998-3 0  9996
2 68431  97.4588 103.7383 0004373  82.7637 277.4095 15.18659766  8400
HADES-SA (SpinnyONE)
1 68446U 26067AG  26144.83060034  .00016667  00000+0  81764-3 0  9994
2 68446  97.4390 103.4941 0008556 140.1456 220.0407 15.18147324  8389
PARUS-6U1
1 68456U 26067AS  26144.84393892  .00005035  00000+0  25635-3 0  9999
2 68456  97.4538 103.5736 0006989 131.8282 228.3550 15.17230320  8398
SAL-E
1 68458U 26067AU  26144.84233524  .00006813  00000+0  34426-3 0  9999
2 68458  97.4464 103.5242 0007052 139.2688 220.9074 15.17368527  8394
FSI-SAT 2
1 68792U 26088A   26144.90916327  .00004065  00000+0  27789-3 0  9990
2 68792  97.5034 294.7608 0014625 182.1544 177.9623 15.06604175  4780
OrigamiSat 2
1 68795U 26088D   26144.81197881  .00003235  00000+0  21333-3 0  9996
2 68795  97.5057 294.7398 0016513 156.0613 204.1387 15.08068555  4776
ARICA 2
1 68796U 26088E   26144.87583964  .00003920  00000+0  25669-3 0  9991
2 68796  97.5039 294.8008 0016618 153.6577 206.5500 15.08198744  4782
WASEDA-SAT-ZERO-II
1 68797U 26088F   26144.87421894  .00005576  00000+0  36215-3 0  9993
2 68797  97.5036 294.8026 0016546 153.5464 206.6612 15.08321039  4784
MANGARO-II-Piscus
1 68798U 26088G   26144.40335842  .00003023  00000+0  19663-3 0  9993
2 68798  97.5043 294.3614 0019865 158.6279 201.5784 15.08572949  4713
Delfi-N3xt
1 39428U 13066N   26144.01487875  .00004367  00000-0  38638-3 0  9990
2 39428  97.8345  64.3527 0073157 287.9261  71.3992 14.94780586671017
HYDRA-W
1 63490U 25052BL  26113.93882235  .05662091  24406-5  29537-2 0  9997
2 63490  97.3690  18.2798 0008685 203.5899 156.4993 16.20186780 62336
HADES-ICM (SO-125)
1 63492U 25052BN  26141.26653903  .06532167  24596-5  20834-2 0  9996
2 63492  97.3646  46.2798 0012082 212.8267 147.2275 16.26141053 66568
SilverSat
1 66909U 98067XV  26113.44966717  .07226154  12288-4  11979-2 0  9998
2 66909  51.6027 190.0749 0007952 333.4666  26.5949 16.32457272 22308
IO-86
1 40931U          25360.30710720  .00000000  00000-0  12800-3 0    00
2 40931   6.0006 332.5373 0012733 338.8432   8.1437 14.79075515    01
LILIUM-4
1 71922C 26067AC  26089.50133053 -.00014632  00000 0 -74472-3 0    04
2 71922  97.4497  49.1617 0004341   5.9603 355.7042 15.16896692    16
TRANSIT 5B-5
1 00965U 64083D   26140.22132175  .00000058  00000-0  68520-4 0  9995
2 00965  90.0785 202.8139 0041495   2.6876  57.4259 13.57009955 39826
PARUS-T1
1 98707U 25009N   25063.20000000  .00000000  00000-0  00000-0 0    08
2 98707  97.4430 144.9801 0003811 149.1702 136.3402 15.16239457    06
T.MicroSat-1
1 98515U 25276Y   25347.12519372 +.00009703 +00000+0 +47621-3 0 00218
2 98515  97.4377  58.8963 0002080  99.7173 260.4296 15.18293117002180
ARICA-2
1 98329U 27001A   26113.71443610  .00000000  00000-0  29916-3 0    03
2 98329  97.5133 264.2063 0010953 206.3608 281.8662 15.08387874    01
CORIOLIS
1 27640U 03001A   26144.94367259  .00000084  00000+0  60272-4 0  9997
2 27640  98.7129 152.1834 0012802 280.9760  78.9977 14.19937642210923
